TRANSIT 16 [?]          
1 02807U 67048A   17252.61416703  .00000069  00000-0  92325-4 0  9997
2 02807  89.6205 101.5225 0019891 189.4283 249.4357 13.50158779475813
TRANSIT 17 [?]          
1 02965U 67092A   17252.87820009  .00000045  00000-0  50776-4 0  9995
2 02965  89.2440 253.2126 0047457 351.7796  54.9470 13.52879374463570
TRANSIT 18 [?]          
1 03133U 68012A   17252.59518935  .00000061  00000-0  80192-4 0  9990
2 03133  89.9588 274.8784 0073756 264.8497 208.9452 13.50990691161963
NNSS 19 [?]             
1 04507U 70067A   17252.54190138  .00000064  00000-0  76188-4 0  9998
2 04507  89.8327 261.3450 0172993  27.0509 333.9528 13.50659446315016
NNSS O-20 [?]           
1 06909U 73081A   17252.58632111  .00000105  00000-0  96286-4 0  9998
2 06909  89.8265 311.0869 0159428 112.5812 249.2307 13.70452760390443
TRANSAT [?]             
1 10457U 77106A   17252.39469073  .00000067  00000-0  91647-4 0  9990
2 10457  89.7664 170.0108 0023376 247.9964 249.3716 13.48573908960878
NOVA I [?]              
1 12458U 81044A   17252.56962432  .00000064  00000-0  13090-3 0  9997
2 12458  89.9519 121.0962 0015356 134.5180 285.1405 13.22968581753304
NOVA 3 [?]              
1 15362U 84110A   17252.52484681  .00000034  00000-0  60992-4 0  9993
2 15362  90.0448  55.2037 0031993   5.4842  56.5399 13.22737062588498
OSCAR 30 [?]            
1 15935U 85066A   17252.54228667  .00000049  00000-0  75975-4 0  9995
2 15935  90.1313  51.3423 0167663 311.4975  87.9365 13.35626469561879
OSCAR 24 [?]            
1 15936U 85066B   17252.52490309  .00000045  00000-0  68443-4 0  9996
2 15936  90.1203  45.0384 0168425 315.9334 108.3414 13.35503341564036
POLAR BEAR [?]          
1 17070U 86088A   17252.60446722  .00000083  00000-0  75409-4 0  9993
2 17070  89.5385 322.9359 0037809 209.8635 267.7892 13.74736528545357
OSCAR 27 [?]            
1 18361U 87080A   17252.38122248  .00000087  00000-0  13099-3 0  9999
2 18361  90.3351 338.3028 0103683 218.6957 140.6731 13.44438321470239
OSCAR 29 [?]            
1 18362U 87080B   17252.34368757  .00000086  00000-0  13199-3 0  9993
2 18362  90.3356 338.5284 0104861 235.7827 165.1128 13.44031467469887
OSCAR 23 [?]            
1 19070U 88033A   17252.63129615  .00000042  00000-0  73672-4 0  9994
2 19070  90.3609 276.4387 0188674 285.9056 189.7494 13.27412922422364
OSCAR 32 [?]            
1 19071U 88033B   17252.63434559  .00000029  00000-0  45896-4 0  9993
2 19071  90.3607 276.5138 0186576 275.1235 200.2843 13.27596397422587
NOVA 11 [?]             
1 19223U 88052A   17252.62708782  .00000023  00000-0  32618-4 0  9996
2 19223  89.9581  86.6869 0031948  46.9117  19.1260 13.22655490410758
OSCAR 25 [?]            
1 19419U 88074A   17252.40438049  .00000078  00000-0  12005-3 0  9996
2 19419  89.9887  18.8281 0095834 207.0688 212.2620 13.42171647421753
OSCAR 31 [?]            
1 19420U 88074B   17252.89439932  .00000052  00000-0  73528-4 0  9993
2 19420  89.9896  18.8504 0094187 199.8170 273.3414 13.42184571422195
